CUTE-1 (CO-55)          
1 27844U 03031E   26064.98098691  .00000414  00000+0  19809-3 0  9998
2 27844  98.6779  74.8258 0010558 122.1079 238.1126 14.24262327176985
CUBESAT XI-IV (CO-57)   
1 27848U 03031J   26064.98829135  .00000334  00000+0  16598-3 0  9990
2 27848  98.6809  74.6285 0010225 138.5816 221.6139 14.23557958176697
CUBESAT XI-V            
1 28895U 05043F   26064.84207073  .00002485  00000+0  40085-3 0  9991
2 28895  98.2823 218.3934 0014522 169.6232 190.5277 14.72298506 86547
CUTE-1.7+APD II (CO-65) 
1 32785U 08021C   26065.19755811  .00007978  00000+0  51766-3 0  9990
2 32785  97.8209  44.6065 0010117  30.7915 329.3904 15.08312336969660
CANX-2                  
1 32790U 08021H   26065.18280503  .00005724  00000+0  40996-3 0  9996
2 32790  97.8565  43.0757 0011930  41.1337 319.0786 15.04750144969315
SEEDS II (CO-66)        
1 32791U 08021J   26064.92898574  .00022736  00000+0  81141-3 0  9990
2 32791  97.7518  58.2030 0002085   9.8257 350.3023 15.28882634971498
SWISSCUBE               
1 35932U 09051B   26065.19296202  .00001759  00000+0  35869-3 0  9992
2 35932  98.4101 331.2738 0006841 163.0927 197.0503 14.62248300874106
BEESAT-1                
1 35933U 09051C   26065.28688956  .00001477  00000+0  30751-3 0  9996
2 35933  98.4031 331.2163 0005077 173.8074 186.3190 14.61523938874153
ITUPSAT1                
1 35935U 09051E   26065.25669722  .00001353  00000+0  29045-3 0  9992
2 35935  98.4119 330.4839 0007029 189.0317 171.0757 14.60259585873715
TISAT 1                 
1 36799U 10035E   26065.28518106  .00024887  00000+0  92801-3 0  9994
2 36799  98.0648   3.0990 0000785 167.2342 192.8915 15.27425128851979
AEROCUBE 4.5A           
1 38767U 12048K   26065.26562233  .00093577  00000+0  10418-2 0  9990
2 38767  64.6388  31.9747 0041360 212.9833 146.8732 15.61264234356459
STRAND-1                
1 39090U 13009E   26065.29197972  .00000516  00000+0  18807-3 0  9997
2 39090  98.3884 248.0682 0008822 171.6035 188.5301 14.37091392682287
BRITE-AUSTRIA           
1 39091U 13009F   26065.05221206  .00000291  00000+0  11379-3 0  9997
2 39091  98.3951 247.0507 0010152 181.8365 178.2786 14.36493427682249
NEE-01 PEGASO           
1 39151U 13018B   26065.21530950  .00004914  00000+0  47691-3 0  9993
2 39151  98.1049 206.1015 0013673 139.7700 220.4533 14.93061910695333
POPACS 2                
1 39269U 13055E   26065.28099983  .00030503  00000+0  53249-3 0  9996
2 39269  80.9888 261.7153 0431326 163.7266 197.8321 14.87594228647892
POPACS 3                
1 39270U 13055F   26064.75759894  .00018190  00000+0  43816-3 0  9990
2 39270  81.0058 341.1671 0561002  24.6518 338.0405 14.53821250623519
